{
    "links": {
        "self": "http://www.neowsapp.com/rest/v1/neo/3844023?api_key=iIulBulltgU6a56xZRHN4H3l9WmuAYTsLGpBGhQ2"
    },
    "id": "3844023",
    "neo_reference_id": "3844023",
    "name": "(2019 SJ3)",
    "designation": "2019 SJ3",
    "nasa_jpl_url": "http://ssd.jpl.nasa.gov/sbdb.cgi?sstr=3844023",
    "absolute_magnitude_h": 24.1,
    "estimated_diameter": {
        "kilometers": {
            "estimated_diameter_min": 0.040230458,
            "estimated_diameter_max": 0.0899580388
        },
        "meters": {
            "estimated_diameter_min": 40.2304579834,
            "estimated_diameter_max": 89.9580388169
        },
        "miles": {
            "estimated_diameter_min": 0.0249980399,
            "estimated_diameter_max": 0.0558973165
        },
        "feet": {
            "estimated_diameter_min": 131.9896957704,
            "estimated_diameter_max": 295.1379320721
        }
    },
    "is_potentially_hazardous_asteroid": false,
    "close_approach_data": [
        {
            "close_approach_date": "2019-10-12",
            "close_approach_date_full": "2019-Oct-12 04:53",
            "epoch_date_close_approach": 1570855980000,
            "relative_velocity": {
                "kilometers_per_second": "5.0626608241",
                "kilometers_per_hour": "18225.5789668393",
                "miles_per_hour": "11324.6659974786"
            },
            "miss_distance": {
                "astronomical": "0.1869125821",
                "lunar": "72.7089944369",
                "kilometers": "27961724.158360127",
                "miles": "17374609.7206466726"
            },
            "orbiting_body": "Earth"
        },
        {
            "close_approach_date": "2090-10-12",
            "close_approach_date_full": "2090-Oct-12 20:08",
            "epoch_date_close_approach": 3811522080000,
            "relative_velocity": {
                "kilometers_per_second": "5.1956721809",
                "kilometers_per_hour": "18704.4198510714",
                "miles_per_hour": "11622.1991013505"
            },
            "miss_distance": {
                "astronomical": "0.1886169347",
                "lunar": "73.3719875983",
                "kilometers": "28216691.677049089",
                "miles": "17533039.1902878682"
            },
            "orbiting_body": "Earth"
        }
    ],
    "orbital_data": {
        "orbit_id": "4",
        "orbit_determination_date": "2019-10-29 06:38:41",
        "first_observation_date": "2019-09-22",
        "last_observation_date": "2019-10-29",
        "data_arc_in_days": 37,
        "observations_used": 38,
        "orbit_uncertainty": "7",
        "minimum_orbit_intersection": ".186644",
        "jupiter_tisserand_invariant": "3.524",
        "epoch_osculation": "2459000.5",
        "eccentricity": ".459767923934515",
        "semi_major_axis": "2.184105875196173",
        "inclination": "7.256372905415881",
        "ascending_node_longitude": "6.294196523475212",
        "orbital_period": "1178.986840129239",
        "perihelion_distance": "1.179924051304052",
        "perihelion_argument": "18.10233742777224",
        "aphelion_distance": "3.188287699088294",
        "perihelion_time": "2458775.977515335486",
        "mean_anomaly": "68.55724909564293",
        "mean_motion": ".3053469196997461",
        "equinox": "J2000",
        "orbit_class": {
            "orbit_class_type": "AMO",
            "orbit_class_description": "Near-Earth asteroid orbits similar to that of 1221 Amor",
            "orbit_class_range": "1.017 AU < q (perihelion) < 1.3 AU"
        }
    },
    "is_sentry_object": false
}